FENGYUN 1C DEB          
1 37080U 99025EFQ 17337.02772120  .00001181  00000-0  73398-3 0  9999
2 37080  98.1661 262.7315 0165975 166.4205 194.1509 14.00060876466900
